SL-4 R/B                
1 39679U 14021B   26047.45721666  .00013491  00000+0  30506-3 0  9992
2 39679  51.6060  80.8012 0098921  25.6150 334.9687 15.38453190653004
ALOS-2                  
1 39766U 14029A   26047.82033708  .00000309  00000+0  48281-4 0  9995
2 39766  97.9210 146.7187 0001548 104.7855 255.3528 14.79463398633784
YAOGAN-29               
1 41038U 15069A   26047.87793402 -.00000059  00000+0 -57421-6 0  9996
2 41038  98.0168  76.2496 0002789  69.9196 290.2317 14.82968759552791
ASTRO-H (HITOMI)        
1 41337U 16012A   26047.54620695  .00003529  00000+0  20694-3 0  9996
2 41337  30.9990 132.9736 0009852 120.4236 239.7377 15.09847977549039
HXMT (HUIYAN)           
1 42758U 17034A   26047.71238318  .00006854  00000+0  34640-3 0  9995
2 42758  43.0145 133.2727 0030556 102.5511 257.8757 15.17190717479352
CZ-2C R/B               
1 43521U 18054D   26047.74730907  .00545978  13547-3  81481-3 0  9995
2 43521  35.1275  86.0634 0011563 106.9945 253.2065 16.03594056425538
SAOCOM 1A               
1 43641U 18076A   26047.83222247  .00000663  00000+0  89815-4 0  9998
2 43641  97.8872 236.3001 0001395  80.8277 279.3094 14.82146141398271
H-2A R/B                
1 43682U 18084L   26047.62738390  .00020965  00000+0  51414-3 0  9990
2 43682  98.8749 260.5290 0026383  95.9860 264.4389 15.40403826402536
SAOCOM 1B               
1 46265U 20059A   26047.79597507  .00000560  00000+0  76899-4 0  9990
2 46265  97.8868 235.3619 0001450  85.2204 274.9175 14.82147511295657
CSS (TIANHE)            
1 48274U 21035A   26047.84789036  .00027454  00000+0  33611-3 0  9998
2 48274  41.4684 334.8883 0004198 119.2852 240.8407 15.59746659274354
COSMOS 2550             
1 48865U 21056A   26046.73800145 -.00000057  00000+0  41028-5 0  9993
2 48865  67.1426 107.3331 0008396 269.7676  90.2516 15.33826475260090
CZ-2C R/B               
1 52794U 22058K   26047.28483078  .00034476  00000+0  53296-3 0  9994
2 52794  50.1881  68.2641 0042136 109.7074 250.8449 15.52689384206802
