CCSDS_OMM_VERS = 2.0
CREATION_DATE  = 
ORIGINATOR     = 

OBJECT_NAME    = SL-4 R/B
OBJECT_ID      = 2014-021B
CENTER_NAME    = EARTH
REF_FRAME      = TEME
TIME_SYSTEM    = UTC
MEAN_ELEMENT_THEORY = SGP/SGP4

EPOCH          = 2026-02-16T10:58:23.519424
MEAN_MOTION    = 15.38453190
ECCENTRICITY   = .00989212
INCLINATION    = 51.6060
RA_OF_ASC_NODE = 80.8012
ARG_OF_PERICENTER = 25.6150
MEAN_ANOMALY   = 334.9687

EPHEMERIS_TYPE = 0
CLASSIFICATION_TYPE = U
NORAD_CAT_ID   = 39679
ELEMENT_SET_NO = 999
REV_AT_EPOCH   = 65300
BSTAR          = .30505931E-3
MEAN_MOTION_DOT = .13491E-3
MEAN_MOTION_DDOT = 0

CCSDS_OMM_VERS = 2.0
CREATION_DATE  = 
ORIGINATOR     = 

OBJECT_NAME    = ALOS-2
OBJECT_ID      = 2014-029A
CENTER_NAME    = EARTH
REF_FRAME      = TEME
TIME_SYSTEM    = UTC
MEAN_ELEMENT_THEORY = SGP/SGP4

EPOCH          = 2026-02-16T19:41:17.123712
MEAN_MOTION    = 14.79463398
ECCENTRICITY   = .0001548
INCLINATION    = 97.9210
RA_OF_ASC_NODE = 146.7187
ARG_OF_PERICENTER = 104.7855
MEAN_ANOMALY   = 255.3528

EPHEMERIS_TYPE = 0
CLASSIFICATION_TYPE = U
NORAD_CAT_ID   = 39766
ELEMENT_SET_NO = 999
REV_AT_EPOCH   = 63378
BSTAR          = .48281E-4
MEAN_MOTION_DOT = .309E-5
MEAN_MOTION_DDOT = 0

CCSDS_OMM_VERS = 2.0
CREATION_DATE  = 
ORIGINATOR     = 

OBJECT_NAME    = YAOGAN-29
OBJECT_ID      = 2015-069A
CENTER_NAME    = EARTH
REF_FRAME      = TEME
TIME_SYSTEM    = UTC
MEAN_ELEMENT_THEORY = SGP/SGP4

EPOCH          = 2026-02-16T21:04:13.499328
MEAN_MOTION    = 14.82968759
ECCENTRICITY   = .0002789
INCLINATION    = 98.0168
RA_OF_ASC_NODE = 76.2496
ARG_OF_PERICENTER = 69.9196
MEAN_ANOMALY   = 290.2317

EPHEMERIS_TYPE = 0
CLASSIFICATION_TYPE = U
NORAD_CAT_ID   = 41038
ELEMENT_SET_NO = 999
REV_AT_EPOCH   = 55279
BSTAR          = -.57421E-6
MEAN_MOTION_DOT = -.59E-6
MEAN_MOTION_DDOT = 0

CCSDS_OMM_VERS = 2.0
CREATION_DATE  = 
ORIGINATOR     = 

OBJECT_NAME    = ASTRO-H (HITOMI)
OBJECT_ID      = 2016-012A
CENTER_NAME    = EARTH
REF_FRAME      = TEME
TIME_SYSTEM    = UTC
MEAN_ELEMENT_THEORY = SGP/SGP4

EPOCH          = 2026-02-16T13:06:32.280480
MEAN_MOTION    = 15.09847977
ECCENTRICITY   = .0009852
INCLINATION    = 30.9990
RA_OF_ASC_NODE = 132.9736
ARG_OF_PERICENTER = 120.4236
MEAN_ANOMALY   = 239.7377

EPHEMERIS_TYPE = 0
CLASSIFICATION_TYPE = U
NORAD_CAT_ID   = 41337
ELEMENT_SET_NO = 999
REV_AT_EPOCH   = 54903
BSTAR          = .20694E-3
MEAN_MOTION_DOT = .3529E-4
MEAN_MOTION_DDOT = 0

CCSDS_OMM_VERS = 2.0
CREATION_DATE  = 
ORIGINATOR     = 

OBJECT_NAME    = HXMT (HUIYAN)
OBJECT_ID      = 2017-034A
CENTER_NAME    = EARTH
REF_FRAME      = TEME
TIME_SYSTEM    = UTC
MEAN_ELEMENT_THEORY = SGP/SGP4

EPOCH          = 2026-02-16T17:05:49.906752
MEAN_MOTION    = 15.17190717
ECCENTRICITY   = .0030556
INCLINATION    = 43.0145
RA_OF_ASC_NODE = 133.2727
ARG_OF_PERICENTER = 102.5511
MEAN_ANOMALY   = 257.8757

EPHEMERIS_TYPE = 0
CLASSIFICATION_TYPE = U
NORAD_CAT_ID   = 42758
ELEMENT_SET_NO = 999
REV_AT_EPOCH   = 47935
BSTAR          = .3464E-3
MEAN_MOTION_DOT = .6854E-4
MEAN_MOTION_DDOT = 0

CCSDS_OMM_VERS = 2.0
CREATION_DATE  = 
ORIGINATOR     = 

OBJECT_NAME    = CZ-2C R/B
OBJECT_ID      = 2018-054D
CENTER_NAME    = EARTH
REF_FRAME      = TEME
TIME_SYSTEM    = UTC
MEAN_ELEMENT_THEORY = SGP/SGP4

EPOCH          = 2026-02-16T17:56:07.503648
MEAN_MOTION    = 16.03594056
ECCENTRICITY   = .0011563
INCLINATION    = 35.1275
RA_OF_ASC_NODE = 86.0634
ARG_OF_PERICENTER = 106.9945
MEAN_ANOMALY   = 253.2065

EPHEMERIS_TYPE = 0
CLASSIFICATION_TYPE = U
NORAD_CAT_ID   = 43521
ELEMENT_SET_NO = 999
REV_AT_EPOCH   = 42553
BSTAR          = .81481E-3
MEAN_MOTION_DOT = .545978E-2
MEAN_MOTION_DDOT = .13547E-3

CCSDS_OMM_VERS = 2.0
CREATION_DATE  = 
ORIGINATOR     = 

OBJECT_NAME    = SAOCOM 1A
OBJECT_ID      = 2018-076A
CENTER_NAME    = EARTH
REF_FRAME      = TEME
TIME_SYSTEM    = UTC
MEAN_ELEMENT_THEORY = SGP/SGP4

EPOCH          = 2026-02-16T19:58:24.021408
MEAN_MOTION    = 14.82146141
ECCENTRICITY   = .0001395
INCLINATION    = 97.8872
RA_OF_ASC_NODE = 236.3001
ARG_OF_PERICENTER = 80.8277
MEAN_ANOMALY   = 279.3094

EPHEMERIS_TYPE = 0
CLASSIFICATION_TYPE = U
NORAD_CAT_ID   = 43641
ELEMENT_SET_NO = 999
REV_AT_EPOCH   = 39827
BSTAR          = .89815E-4
MEAN_MOTION_DOT = .663E-5
MEAN_MOTION_DDOT = 0

CCSDS_OMM_VERS = 2.0
CREATION_DATE  = 
ORIGINATOR     = 

OBJECT_NAME    = H-2A R/B
OBJECT_ID      = 2018-084L
CENTER_NAME    = EARTH
REF_FRAME      = TEME
TIME_SYSTEM    = UTC
MEAN_ELEMENT_THEORY = SGP/SGP4

EPOCH          = 2026-02-16T15:03:25.968960
MEAN_MOTION    = 15.40403826
ECCENTRICITY   = .0026383
INCLINATION    = 98.8749
RA_OF_ASC_NODE = 260.5290
ARG_OF_PERICENTER = 95.9860
MEAN_ANOMALY   = 264.4389

EPHEMERIS_TYPE = 0
CLASSIFICATION_TYPE = U
NORAD_CAT_ID   = 43682
ELEMENT_SET_NO = 999
REV_AT_EPOCH   = 40253
BSTAR          = .51414E-3
MEAN_MOTION_DOT = .20965E-3
MEAN_MOTION_DDOT = 0

CCSDS_OMM_VERS = 2.0
CREATION_DATE  = 
ORIGINATOR     = 

OBJECT_NAME    = SAOCOM 1B
OBJECT_ID      = 2020-059A
CENTER_NAME    = EARTH
REF_FRAME      = TEME
TIME_SYSTEM    = UTC
MEAN_ELEMENT_THEORY = SGP/SGP4

EPOCH          = 2026-02-16T19:06:12.246048
MEAN_MOTION    = 14.82147511
ECCENTRICITY   = .000145
INCLINATION    = 97.8868
RA_OF_ASC_NODE = 235.3619
ARG_OF_PERICENTER = 85.2204
MEAN_ANOMALY   = 274.9175

EPHEMERIS_TYPE = 0
CLASSIFICATION_TYPE = U
NORAD_CAT_ID   = 46265
ELEMENT_SET_NO = 999
REV_AT_EPOCH   = 29565
BSTAR          = .76899E-4
MEAN_MOTION_DOT = .56E-5
MEAN_MOTION_DDOT = 0

CCSDS_OMM_VERS = 2.0
CREATION_DATE  = 
ORIGINATOR     = 

OBJECT_NAME    = CSS (TIANHE)
OBJECT_ID      = 2021-035A
CENTER_NAME    = EARTH
REF_FRAME      = TEME
TIME_SYSTEM    = UTC
MEAN_ELEMENT_THEORY = SGP/SGP4

EPOCH          = 2026-02-16T20:20:57.727104
MEAN_MOTION    = 15.59746659
ECCENTRICITY   = .0004198
INCLINATION    = 41.4684
RA_OF_ASC_NODE = 334.8883
ARG_OF_PERICENTER = 119.2852
MEAN_ANOMALY   = 240.8407

EPHEMERIS_TYPE = 0
CLASSIFICATION_TYPE = U
NORAD_CAT_ID   = 48274
ELEMENT_SET_NO = 999
REV_AT_EPOCH   = 27435
BSTAR          = .33611E-3
MEAN_MOTION_DOT = .27454E-3
MEAN_MOTION_DDOT = 0

CCSDS_OMM_VERS = 2.0
CREATION_DATE  = 
ORIGINATOR     = 

OBJECT_NAME    = COSMOS 2550
OBJECT_ID      = 2021-056A
CENTER_NAME    = EARTH
REF_FRAME      = TEME
TIME_SYSTEM    = UTC
MEAN_ELEMENT_THEORY = SGP/SGP4

EPOCH          = 2026-02-15T17:42:43.325280
MEAN_MOTION    = 15.33826475
ECCENTRICITY   = .0008396
INCLINATION    = 67.1426
RA_OF_ASC_NODE = 107.3331
ARG_OF_PERICENTER = 269.7676
MEAN_ANOMALY   = 90.2516

EPHEMERIS_TYPE = 0
CLASSIFICATION_TYPE = U
NORAD_CAT_ID   = 48865
ELEMENT_SET_NO = 999
REV_AT_EPOCH   = 26009
BSTAR          = .4102791E-5
MEAN_MOTION_DOT = -.57E-6
MEAN_MOTION_DDOT = 0

CCSDS_OMM_VERS = 2.0
CREATION_DATE  = 
ORIGINATOR     = 

OBJECT_NAME    = CZ-2C R/B
OBJECT_ID      = 2022-058K
CENTER_NAME    = EARTH
REF_FRAME      = TEME
TIME_SYSTEM    = UTC
MEAN_ELEMENT_THEORY = SGP/SGP4

EPOCH          = 2026-02-16T06:50:09.379392
MEAN_MOTION    = 15.52689384
ECCENTRICITY   = .0042136
INCLINATION    = 50.1881
RA_OF_ASC_NODE = 68.2641
ARG_OF_PERICENTER = 109.7074
MEAN_ANOMALY   = 250.8449

EPHEMERIS_TYPE = 0
CLASSIFICATION_TYPE = U
NORAD_CAT_ID   = 52794
ELEMENT_SET_NO = 999
REV_AT_EPOCH   = 20680
BSTAR          = .53296E-3
MEAN_MOTION_DOT = .34476E-3
MEAN_MOTION_DDOT = 0

